{
  "type": "FeatureCollection",
  "features": [
    {
      "type": "Feature",
      "properties": {
        "norad_id": 43706,
        "name": "BEIDOU-3 M17 (C36)",
        "group": "beidou",
        "lat": 5.471649426975707,
        "lon": -167.5565171811305,
        "alt_km": 21519.03403320439,
        "timestamp": "2025-12-17T07:00:47.168845+00:00",
        "meta_object_name": "BEIDOU-3 M17 (C36)",
        "meta_object_id": "2018-093A",
        "meta_epoch": "2025-12-15T07:56:44.520576",
        "meta_mean_motion": 1.86228523,
        "meta_eccentricity": 0.00061371,
        "meta_inclination": 54.1729,
        "meta_ra_of_asc_node": 188.5337,
        "meta_arg_of_pericenter": 307.6759,
        "meta_mean_anomaly": 184.25,
        "meta_ephemeris_type": 0,
        "meta_classification_type": "U",
        "meta_norad_cat_id": 43706,
        "meta_element_set_no": 999,
        "meta_rev_at_epoch": 4811,
        "meta_bstar": 0,
        "meta_mean_motion_dot": 1.13e-06,
        "meta_mean_motion_ddot": 0,
        "tle_line1": "1 43706U 18093A   25349.33107084  .00000113  00000+0  00000+0 0  9993",
        "tle_line2": "2 43706  54.1729 188.5337 0006137 307.6759 184.2500  1.86228523 48110"
      },
      "geometry": {
        "type": "Point",
        "coordinates": [
          -167.5565171811305,
          5.471649426975707
        ]
      }
    },
    {
      "type": "Feature",
      "properties": {
        "norad_id": 43707,
        "name": "BEIDOU-3 M18 (C37)",
        "group": "beidou",
        "lat": 53.036483030157044,
        "lon": -65.33976882493471,
        "alt_km": 21527.181073142412,
        "timestamp": "2025-12-17T07:00:47.168858+00:00",
        "meta_object_name": "BEIDOU-3 M18 (C37)",
        "meta_object_id": "2018-093B",
        "meta_epoch": "2025-12-14T23:54:02.185632",
        "meta_mean_motion": 1.86226745,
        "meta_eccentricity": 0.00063121,
        "meta_inclination": 54.1734,
        "meta_ra_of_asc_node": 188.5369,
        "meta_arg_of_pericenter": 353.2198,
        "meta_mean_anomaly": 6.8394,
        "meta_ephemeris_type": 0,
        "meta_classification_type": "U",
        "meta_norad_cat_id": 43707,
        "meta_element_set_no": 999,
        "meta_rev_at_epoch": 4810,
        "meta_bstar": 0,
        "meta_mean_motion_dot": 1.11e-06,
        "meta_mean_motion_ddot": 0,
        "tle_line1": "1 43707U 18093B   25348.99585863  .00000111  00000+0  00000+0 0  9998",
        "tle_line2": "2 43707  54.1734 188.5369 0006312 353.2198   6.8394  1.86226745 48104"
      },
      "geometry": {
        "type": "Point",
        "coordinates": [
          -65.33976882493471,
          53.036483030157044
        ]
      }
    },
    {
      "type": "Feature",
      "properties": {
        "norad_id": 44204,
        "name": "BEIDOU-3 IGSO-1 (C38)",
        "group": "beidou",
        "lat": -58.03726298262923,
        "lon": -60.74517562540882,
        "alt_km": 35716.62485811768,
        "timestamp": "2025-12-17T07:00:47.168871+00:00",
        "meta_object_name": "BEIDOU-3 IGSO-1 (C38)",
        "meta_object_id": "2019-023A",
        "meta_epoch": "2025-11-19T14:15:02.708640",
        "meta_mean_motion": 1.00252177,
        "meta_eccentricity": 0.0026966,
        "meta_inclination": 58.4003,
        "meta_ra_of_asc_node": 39.8168,
        "meta_arg_of_pericenter": 221.2202,
        "meta_mean_anomaly": 126.9723,
        "meta_ephemeris_type": 0,
        "meta_classification_type": "U",
        "meta_norad_cat_id": 44204,
        "meta_element_set_no": 999,
        "meta_rev_at_epoch": 510,
        "meta_bstar": 0,
        "meta_mean_motion_dot": -2.26e-06,
        "meta_mean_motion_ddot": 0,
        "tle_line1": "1 44204U 19023A   25323.59378135 -.00000226  00000+0  00000+0 0  9994",
        "tle_line2": "2 44204  58.4003  39.8168 0026966 221.2202 126.9723  1.00252177  5102"
      },
      "geometry": {
        "type": "Point",
        "coordinates": [
          -60.74517562540882,
          -58.03726298262923
        ]
      }
    },
    {
      "type": "Feature",
      "properties": {
        "norad_id": 44231,
        "name": "BEIDOU-2 G8 (C01)",
        "group": "beidou",
        "lat": -1.6566419174420235,
        "lon": -24.2112475115125,
        "alt_km": 35750.90947716284,
        "timestamp": "2025-12-17T07:00:47.168888+00:00",
        "meta_object_name": "BEIDOU-2 G8 (C01)",
        "meta_object_id": "2019-027A",
        "meta_epoch": "2025-12-16T20:53:33.437760",
        "meta_mean_motion": 1.00267152,
        "meta_eccentricity": 0.00087571,
        "meta_inclination": 1.6722,
        "meta_ra_of_asc_node": 74.7225,
        "meta_arg_of_pericenter": 258.6076,
        "meta_mean_anomaly": 210.2511,
        "meta_ephemeris_type": 0,
        "meta_classification_type": "U",
        "meta_norad_cat_id": 44231,
        "meta_element_set_no": 999,
        "meta_rev_at_epoch": 2425,
        "meta_bstar": 0,
        "meta_mean_motion_dot": -2.26e-06,
        "meta_mean_motion_ddot": 0,
        "tle_line1": "1 44231U 19027A   25350.87052590 -.00000226  00000+0  00000+0 0  9993",
        "tle_line2": "2 44231   1.6722  74.7225 0008757 258.6076 210.2511  1.00267152 24251"
      },
      "geometry": {
        "type": "Point",
        "coordinates": [
          -24.2112475115125,
          -1.6566419174420235
        ]
      }
    },
    {
      "type": "Feature",
      "properties": {
        "norad_id": 44337,
        "name": "BEIDOU-3 IGSO-2 (C39)",
        "group": "beidou",
        "lat": 24.17677202979426,
        "lon": -37.75769832331299,
        "alt_km": 35687.50758376587,
        "timestamp": "2025-12-17T07:00:47.168900+00:00",
        "meta_object_name": "BEIDOU-3 IGSO-2 (C39)",
        "meta_object_id": "2019-035A",
        "meta_epoch": "2025-12-16T20:46:49.083168",
        "meta_mean_motion": 1.00270089,
        "meta_eccentricity": 0.00374411,
        "meta_inclination": 55.2266,
        "meta_ra_of_asc_node": 160.465,
        "meta_arg_of_pericenter": 202.4261,
        "meta_mean_anomaly": 154.0265,
        "meta_ephemeris_type": 0,
        "meta_classification_type": "U",
        "meta_norad_cat_id": 44337,
        "meta_element_set_no": 999,
        "meta_rev_at_epoch": 2383,
        "meta_bstar": 0,
        "meta_mean_motion_dot": -3.9e-07,
        "meta_mean_motion_ddot": 0,
        "tle_line1": "1 44337U 19035A   25350.86584587 -.00000039  00000+0  00000+0 0  9996",
        "tle_line2": "2 44337  55.2266 160.4650 0037441 202.4261 154.0265  1.00270089 23833"
      },
      "geometry": {
        "type": "Point",
        "coordinates": [
          -37.75769832331299,
          24.17677202979426
        ]
      }
    },
    {
      "type": "Feature",
      "properties": {
        "norad_id": 44542,
        "name": "BEIDOU-3 M24 (C46)",
        "group": "beidou",
        "lat": 39.87843286052559,
        "lon": -134.34830874806258,
        "alt_km": 21499.503784261462,
        "timestamp": "2025-12-17T07:00:47.168912+00:00",
        "meta_object_name": "BEIDOU-3 M24 (C46)",
        "meta_object_id": "2019-061A",
        "meta_epoch": "2025-12-16T03:22:44.327712",
        "meta_mean_motion": 1.86229353,
        "meta_eccentricity": 0.00096014,
        "meta_inclination": 54.4001,
        "meta_ra_of_asc_node": 188.9011,
        "meta_arg_of_pericenter": 24.8001,
        "meta_mean_anomaly": 335.316,
        "meta_ephemeris_type": 0,
        "meta_classification_type": "U",
        "meta_norad_cat_id": 44542,
        "meta_element_set_no": 999,
        "meta_rev_at_epoch": 4238,
        "meta_bstar": 0,
        "meta_mean_motion_dot": 1.15e-06,
        "meta_mean_motion_ddot": 0,
        "tle_line1": "1 44542U 19061A   25350.14079083  .00000115  00000+0  00000+0 0  9998",
        "tle_line2": "2 44542  54.4001 188.9011 0009601  24.8001 335.3160  1.86229353 42381"
      },
      "geometry": {
        "type": "Point",
        "coordinates": [
          -134.34830874806258,
          39.87843286052559
        ]
      }
    },
    {
      "type": "Feature",
      "properties": {
        "norad_id": 44543,
        "name": "BEIDOU-3 M23 (C45)",
        "group": "beidou",
        "lat": -28.017396203138606,
        "lon": 166.41928454566096,
        "alt_km": 21523.425342212533,
        "timestamp": "2025-12-17T07:00:47.168925+00:00",
        "meta_object_name": "BEIDOU-3 M23 (C45)",
        "meta_object_id": "2019-061B",
        "meta_epoch": "2025-12-16T19:20:04.225344",
        "meta_mean_motion": 1.86227685,
        "meta_eccentricity": 0.00060954,
        "meta_inclination": 54.399,
        "meta_ra_of_asc_node": 188.847,
        "meta_arg_of_pericenter": 24.4715,
        "meta_mean_anomaly": 334.1063,
        "meta_ephemeris_type": 0,
        "meta_classification_type": "U",
        "meta_norad_cat_id": 44543,
        "meta_element_set_no": 999,
        "meta_rev_at_epoch": 4239,
        "meta_bstar": 0,
        "meta_mean_motion_dot": 1.15e-06,
        "meta_mean_motion_ddot": 0,
        "tle_line1": "1 44543U 19061B   25350.80560446  .00000115  00000+0  00000+0 0  9990",
        "tle_line2": "2 44543  54.3990 188.8470 0006095  24.4715 334.1063  1.86227685 42394"
      },
      "geometry": {
        "type": "Point",
        "coordinates": [
          166.41928454566096,
          -28.017396203138606
        ]
      }
    }
  ]
}